[{"OBJECT_NAME":"IRIDIUM 33 DEB","OBJECT_ID":"1997-051RA","EPOCH":"2026-04-02T08:46:32.941920","MEAN_MOTION":14.69576553,"ECCENTRICITY":0.0010215,"INCLINATION":86.3558,"RA_OF_ASC_NODE":319.6752,"ARG_OF_PERICENTER":320.3322,"MEAN_ANOMALY":39.7146,"EPHEMERIS_TYPE":0,"CLASSIFICATION_TYPE":"U","NORAD_CAT_ID":35628,"ELEMENT_SET_NO":999,"REV_AT_EPOCH":88070,"BSTAR":0.0015304351,"MEAN_MOTION_DOT":9.12e-5,"MEAN_MOTION_DDOT":0},{"OBJECT_NAME":"IRIDIUM 33 DEB","OBJECT_ID":"1997-051RD","EPOCH":"2026-04-03T15:54:07.103808","MEAN_MOTION":14.47695741,"ECCENTRICITY":0.00187863,"INCLINATION":86.3691,"RA_OF_ASC_NODE":332.7959,"ARG_OF_PERICENTER":104.9103,"MEAN_ANOMALY":311.4138,"EPHEMERIS_TYPE":0,"CLASSIFICATION_TYPE":"U","NORAD_CAT_ID":35631,"ELEMENT_SET_NO":999,"REV_AT_EPOCH":88816,"BSTAR":0.00045597696,"MEAN_MOTION_DOT":1.705e-5,"MEAN_MOTION_DDOT":0},{"OBJECT_NAME":"IRIDIUM 33 DEB","OBJECT_ID":"1997-051RJ","EPOCH":"2026-03-31T10:29:12.988032","MEAN_MOTION":14.22612925,"ECCENTRICITY":0.01493174,"INCLINATION":86.1058,"RA_OF_ASC_NODE":333.3438,"ARG_OF_PERICENTER":294.8095,"MEAN_ANOMALY":246.137,"EPHEMERIS_TYPE":0,"CLASSIFICATION_TYPE":"U","NORAD_CAT_ID":35680,"ELEMENT_SET_NO":999,"REV_AT_EPOCH":62245,"BSTAR":0.0025231499,"MEAN_MOTION_DOT":6.338e-5,"MEAN_MOTION_DDOT":0},{"OBJECT_NAME":"IRIDIUM 33 DEB","OBJECT_ID":"1997-051RX","EPOCH":"2026-04-01T22:26:19.645440","MEAN_MOTION":14.72708679,"ECCENTRICITY":0.0020833,"INCLINATION":86.3228,"RA_OF_ASC_NODE":275.5653,"ARG_OF_PERICENTER":172.9651,"MEAN_ANOMALY":187.1863,"EPHEMERIS_TYPE":0,"CLASSIFICATION_TYPE":"U","NORAD_CAT_ID":35744,"ELEMENT_SET_NO":999,"REV_AT_EPOCH":88952,"BSTAR":0.0011959,"MEAN_MOTION_DOT":7.678e-5,"MEAN_MOTION_DDOT":0},{"OBJECT_NAME":"IRIDIUM 33 DEB","OBJECT_ID":"1997-051SF","EPOCH":"2026-04-03T06:18:21.197376","MEAN_MOTION":14.86445536,"ECCENTRICITY":0.0012597,"INCLINATION":86.3298,"RA_OF_ASC_NODE":278.5703,"ARG_OF_PERICENTER":123.7058,"MEAN_ANOMALY":236.537,"EPHEMERIS_TYPE":0,"CLASSIFICATION_TYPE":"U","NORAD_CAT_ID":35797,"ELEMENT_SET_NO":999,"REV_AT_EPOCH":88995,"BSTAR":0.0031364,"MEAN_MOTION_DOT":0.00027844,"MEAN_MOTION_DDOT":0},{"OBJECT_NAME":"IRIDIUM 33 DEB","OBJECT_ID":"1997-051SQ","EPOCH":"2026-03-28T10:00:29.634624","MEAN_MOTION":14.58659928,"ECCENTRICITY":0.00159715,"INCLINATION":86.3462,"RA_OF_ASC_NODE":334.0677,"ARG_OF_PERICENTER":72.6099,"MEAN_ANOMALY":287.6855,"EPHEMERIS_TYPE":0,"CLASSIFICATION_TYPE":"U","NORAD_CAT_ID":35806,"ELEMENT_SET_NO":999,"REV_AT_EPOCH":87864,"BSTAR":0.0010059062,"MEAN_MOTION_DOT":4.716e-5,"MEAN_MOTION_DDOT":0},{"OBJECT_NAME":"IRIDIUM 33 DEB","OBJECT_ID":"1997-051ST","EPOCH":"2026-04-01T06:24:38.879424","MEAN_MOTION":14.78394809,"ECCENTRICITY":0.00104603,"INCLINATION":86.3216,"RA_OF_ASC_NODE":285.3551,"ARG_OF_PERICENTER":219.8511,"MEAN_ANOMALY":140.1942,"EPHEMERIS_TYPE":0,"CLASSIFICATION_TYPE":"U","NORAD_CAT_ID":35809,"ELEMENT_SET_NO":999,"REV_AT_EPOCH":88424,"BSTAR":0.0017345932,"MEAN_MOTION_DOT":0.00012675,"MEAN_MOTION_DDOT":0},{"OBJECT_NAME":"IRIDIUM 33 DEB","OBJECT_ID":"1997-051SW","EPOCH":"2026-04-04T05:05:52.871136","MEAN_MOTION":14.43670351,"ECCENTRICITY":0.00181196,"INCLINATION":86.3803,"RA_OF_ASC_NODE":10.8252,"ARG_OF_PERICENTER":155.6074,"MEAN_ANOMALY":204.5989,"EPHEMERIS_TYPE":0,"CLASSIFICATION_TYPE":"U","NORAD_CAT_ID":35846,"ELEMENT_SET_NO":999,"REV_AT_EPOCH":72951,"BSTAR":0.00094084614,"MEAN_MOTION_DOT":3.218e-5,"MEAN_MOTION_DDOT":0},{"OBJECT_NAME":"IRIDIUM 33 DEB","OBJECT_ID":"1997-051SY","EPOCH":"2026-04-01T22:11:55.779360","MEAN_MOTION":14.81777012,"ECCENTRICITY":0.0007335,"INCLINATION":86.3902,"RA_OF_ASC_NODE":326.4626,"ARG_OF_PERICENTER":163.4408,"MEAN_ANOMALY":196.7055,"EPHEMERIS_TYPE":0,"CLASSIFICATION_TYPE":"U","NORAD_CAT_ID":35848,"ELEMENT_SET_NO":999,"REV_AT_EPOCH":68320,"BSTAR":0.0014715,"MEAN_MOTION_DOT":0.00011647,"MEAN_MOTION_DDOT":0},{"OBJECT_NAME":"IRIDIUM 33 DEB","OBJECT_ID":"1997-051TA","EPOCH":"2026-03-30T06:49:47.935776","MEAN_MOTION":14.81777826,"ECCENTRICITY":0.00091339,"INCLINATION":86.3449,"RA_OF_ASC_NODE":295.2049,"ARG_OF_PERICENTER":172.3838,"MEAN_ANOMALY":187.7525,"EPHEMERIS_TYPE":0,"CLASSIFICATION_TYPE":"U","NORAD_CAT_ID":35850,"ELEMENT_SET_NO":999,"REV_AT_EPOCH":72948,"BSTAR":0.0017138924,"MEAN_MOTION_DOT":0.00013568,"MEAN_MOTION_DDOT":0},{"OBJECT_NAME":"IRIDIUM 33 DEB","OBJECT_ID":"1997-051TY","EPOCH":"2026-03-23T20:52:41.182176","MEAN_MOTION":14.83975606,"ECCENTRICITY":0.00097057,"INCLINATION":86.3396,"RA_OF_ASC_NODE":296.6253,"ARG_OF_PERICENTER":195.9754,"MEAN_ANOMALY":164.1165,"EPHEMERIS_TYPE":0,"CLASSIFICATION_TYPE":"U","NORAD_CAT_ID":35915,"ELEMENT_SET_NO":999,"REV_AT_EPOCH":9584,"BSTAR":0.0015383613,"MEAN_MOTION_DOT":0.00012841,"MEAN_MOTION_DDOT":0},{"OBJECT_NAME":"IRIDIUM 33 DEB","OBJECT_ID":"1997-051UB","EPOCH":"2026-04-01T13:20:33.843264","MEAN_MOTION":14.52281649,"ECCENTRICITY":0.00260033,"INCLINATION":86.4051,"RA_OF_ASC_NODE":28.6252,"ARG_OF_PERICENTER":157.4201,"MEAN_ANOMALY":20.4294,"EPHEMERIS_TYPE":0,"CLASSIFICATION_TYPE":"U","NORAD_CAT_ID":35918,"ELEMENT_SET_NO":999,"REV_AT_EPOCH":86800,"BSTAR":0.0010470407,"MEAN_MOTION_DOT":4.293e-5,"MEAN_MOTION_DDOT":0},{"OBJECT_NAME":"IRIDIUM 33 DEB","OBJECT_ID":"1997-051UN","EPOCH":"2026-04-03T17:03:42.252480","MEAN_MOTION":15.1205238,"ECCENTRICITY":0.00129871,"INCLINATION":86.3398,"RA_OF_ASC_NODE":259.2114,"ARG_OF_PERICENTER":332.466,"MEAN_ANOMALY":27.5889,"EPHEMERIS_TYPE":0,"CLASSIFICATION_TYPE":"U","NORAD_CAT_ID":35929,"ELEMENT_SET_NO":999,"REV_AT_EPOCH":89466,"BSTAR":0.0041458423,"MEAN_MOTION_DOT":0.00072023,"MEAN_MOTION_DDOT":0},{"OBJECT_NAME":"IRIDIUM 33 DEB","OBJECT_ID":"1997-051US","EPOCH":"2026-04-02T11:08:29.668992","MEAN_MOTION":14.41749682,"ECCENTRICITY":0.00168832,"INCLINATION":86.345,"RA_OF_ASC_NODE":347.8727,"ARG_OF_PERICENTER":211.8744,"MEAN_ANOMALY":329.2715,"EPHEMERIS_TYPE":0,"CLASSIFICATION_TYPE":"U","NORAD_CAT_ID":36011,"ELEMENT_SET_NO":999,"REV_AT_EPOCH":66135,"BSTAR":0.00054952524,"MEAN_MOTION_DOT":1.815e-5,"MEAN_MOTION_DDOT":0},{"OBJECT_NAME":"IRIDIUM 33 DEB","OBJECT_ID":"1997-051UT","EPOCH":"2026-04-04T04:24:57.314880","MEAN_MOTION":14.20836964,"ECCENTRICITY":0.02151993,"INCLINATION":86.4388,"RA_OF_ASC_NODE":262.1106,"ARG_OF_PERICENTER":263.2585,"MEAN_ANOMALY":94.4074,"EPHEMERIS_TYPE":0,"CLASSIFICATION_TYPE":"U","NORAD_CAT_ID":36012,"ELEMENT_SET_NO":999,"REV_AT_EPOCH":67080,"BSTAR":0.0026625028,"MEAN_MOTION_DOT":7.287e-5,"MEAN_MOTION_DDOT":0},{"OBJECT_NAME":"IRIDIUM 33 DEB","OBJECT_ID":"1997-051VK","EPOCH":"2026-03-30T16:41:59.295552","MEAN_MOTION":15.01489736,"ECCENTRICITY":0.00146912,"INCLINATION":86.3177,"RA_OF_ASC_NODE":255.6584,"ARG_OF_PERICENTER":17.8833,"MEAN_ANOMALY":342.2914,"EPHEMERIS_TYPE":0,"CLASSIFICATION_TYPE":"U","NORAD_CAT_ID":36028,"ELEMENT_SET_NO":999,"REV_AT_EPOCH":88741,"BSTAR":0.0029684418,"MEAN_MOTION_DOT":0.00038639,"MEAN_MOTION_DDOT":0}]
